{"spkid": "20417419", "covariance": {"epoch": "2457198.5", "labels": ["e", "q", "tp", "node", "peri", "i"], "elements": [{"label": "e", "name": "e", "sigma": 5.91173987653242e-08, "units": null, "title": "eccentricity", "value": ".1274247958485089"}, {"label": "q", "sigma": 6.93468332055936e-08, "name": "q", "units": "au", "value": "1.046301365806073", "title": "perihelion distance"}, {"title": "time of perihelion passage", "value": "2457347.478561723042", "units": "TDB", "sigma": 3.01555346288282e-05, "name": "tp", "label": "tp"}, {"label": "node", "name": "om", "sigma": 2.07165110967575e-05, "value": "117.2274969093111", "title": "longitude of the ascending node", "units": "deg"}, {"title": "argument of perihelion", "value": "214.2253009238163", "units": "deg", "name": "w", "sigma": 2.94508880143027e-05, "label": "peri"}, {"label": "i", "title": "inclination", "value": "9.355299837797034", "units": "deg", "name": "i", "sigma": 7.15192917398588e-06}], "data": [["3.494866836778355E-15", "-4.096538804507811E-15", "3.219298531332539E-13", "-1.863926330746149E-13", "3.149806880818276E-13", "-3.194941255351006E-15"], ["-4.096538804507811E-15", "4.808983275644415E-15", "-3.175199260945786E-13", "2.169699189231242E-13", "-3.307631032260416E-13", "3.027964204601059E-15"], ["3.219298531332539E-13", "-3.175199260945786E-13", "9.093562687504551E-10", "-3.914715979921318E-11", "6.426715784089911E-10", "-6.348451708198857E-12"], ["-1.863926330746149E-13", "2.169699189231242E-13", "-3.914715979921318E-11", "4.291738320220757E-10", "-4.392098334102124E-10", "-4.687256472947926E-11"], ["3.149806880818276E-13", "-3.307631032260416E-13", "6.426715784089911E-10", "-4.392098334102124E-10", "8.673548048309978E-10", "4.291167493892146E-11"], ["-3.194941255351006E-15", "3.027964204601059E-15", "-6.348451708198857E-12", "-4.687256472947926E-11", "4.291167493892146E-11", "5.115009090971035E-11"]]}, "elements": [{"sigma": "5.9074E-8", "name": "e", "value": ".1274176736652103", "title": "eccentricity", "units": null, "label": "e"}, {"value": "1.199082948495064", "title": "semi-major axis", "units": "au", "name": "a", "sigma": "3.4741E-9", "label": "a"}, {"units": "au", "value": "1.046298588666202", "title": "perihelion distance", "name": "q", "sigma": "6.9339E-8", "label": "q"}, {"label": "i", "name": "i", "sigma": "7.1518E-6", "units": "deg", "value": "9.355495458589486", "title": "inclination; angle with respect to x-y ecliptic plane"}, {"name": "om", "sigma": "2.0716E-5", "units": "deg", "title": "longitude of the ascending node", "value": "117.1889753152912", "label": "node"}, {"sigma": "2.9469E-5", "name": "w", "units": "deg", "title": "argument of perihelion", "value": "214.1991645724774", "label": "peri"}, {"sigma": "3.3107E-5", "name": "ma", "units": "deg", "title": "mean anomaly", "value": "12.33557832493667", "label": "M"}, {"sigma": "4.4042E-5", "name": "tp", "value": "2461184.066529783920", "title": "time of perihelion passage", "units": "TDB", "label": "tp"}, {"value": "479.5923727247911", "title": "sidereal orbital period", "units": "d", "sigma": "2.0843E-6", "name": "per", "label": "period"}, {"value": ".7506374589626389", "title": "mean motion", "units": "deg/d", "name": "n", "sigma": "3.2623E-9", "label": "n"}, {"label": "Q", "name": "ad", "sigma": "3.9168E-9", "units": "au", "title": "aphelion distance", "value": "1.351867308323926"}], "epoch": "2461200.5"}